[{"OBJECT_NAME":"ONEWEB-0278","OBJECT_ID":"2021-060AF","EPOCH":"2026-03-09T22:30:27.158112","MEAN_MOTION":13.16593811,"ECCENTRICITY":0.00017026,"INCLINATION":87.9006,"RA_OF_ASC_NODE":248.5125,"ARG_OF_PERICENTER":87.8383,"MEAN_ANOMALY":272.2943,"EPHEMERIS_TYPE":0,"CLASSIFICATION_TYPE":"U","NORAD_CAT_ID":48996,"ELEMENT_SET_NO":999,"REV_AT_EPOCH":22663,"BSTAR":0.00012040382,"MEAN_MOTION_DOT":5.9e-7,"MEAN_MOTION_DDOT":0},{"OBJECT_NAME":"DELTA 1 DEB","OBJECT_ID":"1968-002L","EPOCH":"2026-02-25T02:08:58.080768","MEAN_MOTION":12.91235474,"ECCENTRICITY":0.02929635,"INCLINATION":105.793,"RA_OF_ASC_NODE":139.4737,"ARG_OF_PERICENTER":49.3601,"MEAN_ANOMALY":68.101,"EPHEMERIS_TYPE":0,"CLASSIFICATION_TYPE":"U","NORAD_CAT_ID":29187,"ELEMENT_SET_NO":999,"REV_AT_EPOCH":58764,"BSTAR":0.00070165234,"MEAN_MOTION_DOT":1.5e-6,"MEAN_MOTION_DDOT":0}]
